OBJECT_NAME,OBJECT_ID,EPOCH,MEAN_MOTION,ECCENTRICITY,INCLINATION,RA_OF_ASC_NODE,ARG_OF_PERICENTER,MEAN_ANOMALY,EPHEMERIS_TYPE,CLASSIFICATION_TYPE,NORAD_CAT_ID,ELEMENT_SET_NO,REV_AT_EPOCH,BSTAR,MEAN_MOTION_DOT,MEAN_MOTION_DDOT
STARLINK-5540,2023-058Z,2025-02-16T22:19:27.089760,15.01268724,.000252,97.6570,51.2584,38.5259,321.6145,0,U,56340,999,10025,.26473E-4,.281E-5,0
STARLINK-5543,2023-058AA,2025-02-17T12:40:35.428512,15.01258008,.0001903,97.6568,51.8522,34.1627,325.9720,0,U,56341,999,9985,.6189E-4,.736E-5,0
STARLINK-5955,2023-058AB,2025-02-17T12:37:57.113472,15.01158367,.0003601,97.6564,51.8534,66.1748,293.9854,0,U,56342,999,9985,.14767E-2,.1891E-3,0
STARLINK-5976,2023-058AC,2025-02-16T23:39:25.470144,15.01260722,.0001233,97.6568,51.3281,94.9101,265.2264,0,U,56343,999,9977,-.17008E-4,-.277E-5,0
STARLINK-5974,2023-058AD,2025-02-17T12:32:33.945504,15.01272869,.0001672,97.6564,51.8503,94.8985,265.2430,0,U,56344,999,9985,.24369E-3,.3073E-4,0
STARLINK-5979,2023-058AE,2025-02-17T12:24:36.432576,15.01252593,.0001197,97.6562,51.8556,94.0230,266.1131,0,U,56345,999,9985,-.47762E-4,-.672E-5,0
STARLINK-5837,2023-058AF,2025-02-16T23:42:05.772384,15.01257714,.0001452,97.6566,51.3264,93.4829,266.6562,0,U,56346,999,9977,-.45644E-4,-.645E-5,0
STARLINK-5829,2023-058AG,2025-02-16T23:34:06.819168,15.01266728,.0001044,97.6562,51.3318,107.6666,252.4672,0,U,56347,999,9977,.16319E-3,.2038E-4,0
STARLINK-5888,2023-058AH,2025-02-17T12:32:56.778432,15.01260638,.000169,97.6563,51.8505,91.4014,268.7403,0,U,56348,999,9985,.2858E-4,.308E-5,0
STARLINK-5887,2023-058AJ,2025-02-17T12:13:56.887680,15.01232747,.0002051,97.6568,51.8630,168.1871,191.9402,0,U,56349,999,9985,-.22169E-3,-.2903E-4,0
STARLINK-5886,2023-058AK,2025-02-16T21:52:46.737984,15.01258060,.000145,97.6569,51.2699,169.7513,190.3741,0,U,56350,999,10025,-.52605E-4,-.735E-5,0
STARLINK-5891,2023-058AL,2025-02-16T23:23:25.188576,15.01260604,.0001926,97.6571,51.3397,178.5580,181.5650,0,U,56351,999,10026,-.82731E-5,-.165E-5,0
STARLINK-5885,2023-058AM,2025-02-17T12:19:15.260448,15.01259073,.0001029,97.6565,51.8593,165.8408,194.2845,0,U,56352,999,9985,.43972E-4,.506E-5,0
STARLINK-5874,2023-058AN,2025-02-16T23:04:45.174144,15.01263492,.0000718,97.6607,51.3660,112.8004,247.3296,0,U,56353,999,9977,.75071E-4,.905E-5,0
STARLINK-5877,2023-058AP,2025-02-17T12:22:16.825728,15.01257833,.0002474,97.6565,51.8575,157.9634,202.1697,0,U,56354,999,9985,.3162E-4,.347E-5,0
STARLINK-5533,2023-058AQ,2025-02-16T23:15:25.488864,15.01260581,.0002253,97.6581,51.3474,146.1703,213.9665,0,U,56355,999,10026,.47638E-4,.553E-5,0
STARLINK-5535,2023-058AR,2025-02-17T12:05:53.858976,15.01288058,.0001551,97.6578,51.8705,216.7254,143.3864,0,U,56356,999,9985,.57681E-3,.7363E-4,0
STARLINK-5538,2023-058AS,2025-02-16T23:15:46.750176,15.01258438,.0001726,97.6581,51.3472,143.2822,216.8521,0,U,56357,999,10026,.20722E-4,.207E-5,0
STARLINK-5482,2023-058AT,2025-02-17T00:56:43.588896,15.01269215,.0002903,97.6576,51.4090,160.8985,199.2349,0,U,56358,999,9978,.94124E-4,.115E-4,0
STARLINK-5551,2023-058AU,2025-02-17T12:00:56.532384,15.01255141,.0002321,97.6582,51.8761,121.7151,238.4299,0,U,56359,999,9985,.93422E-4,.1141E-4,0
STARLINK-5549,2023-058AV,2025-02-16T23:12:46.708992,15.01241813,.0001145,97.6582,51.3500,105.7118,254.4233,0,U,56360,999,9977,-.62915E-4,-.867E-5,0
STARLINK-5550,2023-058AW,2025-02-16T23:10:05.484864,15.01262140,.0002314,97.6589,51.3550,128.3067,231.8366,0,U,56361,999,10026,.59729E-4,.708E-5,0
STARLINK-5972,2023-058AX,2025-02-17T11:55:16.155264,15.01276641,.0001226,97.6611,51.8857,91.4457,268.6908,0,U,56362,999,9985,-.28339E-3,-.3699E-4,0
STARLINK-6156,2023-061A,2025-02-17T12:38:22.477920,15.02521827,.0000772,43.0040,130.5517,243.3153,116.7611,0,U,56374,999,9913,-.36489E-4,-.696E-5,0
STARLINK-6158,2023-061B,2025-02-17T12:30:21.698208,15.02535957,.0001455,43.0024,130.5101,278.4570,81.6107,0,U,56375,999,9910,.95951E-4,.1093E-4,0
STARLINK-6188,2023-061C,2025-02-17T11:59:59.898912,15.02533846,.0000503,43.0009,130.3457,273.9844,86.0940,0,U,56376,999,9910,.42708E-4,.374E-5,0
