STARLINK-5540           
1 56340U 23058Z   25047.93017465  .00000281  00000+0  26473-4 0  9995
2 56340  97.6570  51.2584 0002520  38.5259 321.6145 15.01268724100256
STARLINK-5543           
1 56341U 23058AA  25048.52818783  .00000736  00000+0  61890-4 0  9991
2 56341  97.6568  51.8522 0001903  34.1627 325.9720 15.01258008 99850
STARLINK-5955           
1 56342U 23058AB  25048.52635548  .00018910  00000+0  14767-2 0  9990
2 56342  97.6564  51.8534 0003601  66.1748 293.9854 15.01158367 99855
STARLINK-5976           
1 56343U 23058AC  25047.98571146 -.00000277  00000+0 -17008-4 0  9995
2 56343  97.6568  51.3281 0001233  94.9101 265.2264 15.01260722 99772
STARLINK-5974           
1 56344U 23058AD  25048.52261511  .00003073  00000+0  24369-3 0  9991
2 56344  97.6564  51.8503 0001672  94.8985 265.2430 15.01272869 99856
STARLINK-5979           
1 56345U 23058AE  25048.51708834 -.00000672  00000+0 -47762-4 0  9992
2 56345  97.6562  51.8556 0001197  94.0230 266.1131 15.01252593 99850
STARLINK-5837           
1 56346U 23058AF  25047.98756681 -.00000645  00000+0 -45644-4 0  9993
2 56346  97.6566  51.3264 0001452  93.4829 266.6562 15.01257714 99771
STARLINK-5829           
1 56347U 23058AG  25047.98202337  .00002038  00000+0  16319-3 0  9990
2 56347  97.6562  51.3318 0001044 107.6666 252.4672 15.01266728 99772
STARLINK-5888           
1 56348U 23058AH  25048.52287938  .00000308  00000+0  28580-4 0  9994
2 56348  97.6563  51.8505 0001690  91.4014 268.7403 15.01260638 99856
STARLINK-5887           
1 56349U 23058AJ  25048.50968620 -.00002903  00000+0 -22169-3 0  9998
2 56349  97.6568  51.8630 0002051 168.1871 191.9402 15.01232747 99852
STARLINK-5886           
1 56350U 23058AK  25047.91165206 -.00000735  00000+0 -52605-4 0  9993
2 56350  97.6569  51.2699 0001450 169.7513 190.3741 15.01258060100258
STARLINK-5891           
1 56351U 23058AL  25047.97459709 -.00000165  00000+0 -82731-5 0  9995
2 56351  97.6571  51.3397 0001926 178.5580 181.5650 15.01260604100267
STARLINK-5885           
1 56352U 23058AM  25048.51337107  .00000506  00000+0  43972-4 0  9994
2 56352  97.6565  51.8593 0001029 165.8408 194.2845 15.01259073 99853
STARLINK-5874           
1 56353U 23058AN  25047.96163396  .00000905  00000+0  75071-4 0  9998
2 56353  97.6607  51.3660 0000718 112.8004 247.3296 15.01263492 99770
STARLINK-5877           
1 56354U 23058AP  25048.51547252  .00000347  00000+0  31620-4 0  9990
2 56354  97.6565  51.8575 0002474 157.9634 202.1697 15.01257833 99859
STARLINK-5533           
1 56355U 23058AQ  25047.96904501  .00000553  00000+0  47638-4 0  9998
2 56355  97.6581  51.3474 0002253 146.1703 213.9665 15.01260581100260
STARLINK-5535           
1 56356U 23058AR  25048.50409559  .00007363  00000+0  57681-3 0  9997
2 56356  97.6578  51.8705 0001551 216.7254 143.3864 15.01288058 99852
STARLINK-5538           
1 56357U 23058AS  25047.96929109  .00000207  00000+0  20722-4 0  9992
2 56357  97.6581  51.3472 0001726 143.2822 216.8521 15.01258438100265
STARLINK-5482           
1 56358U 23058AT  25048.03939339  .00001150  00000+0  94124-4 0  9993
2 56358  97.6576  51.4090 0002903 160.8985 199.2349 15.01269215 99781
STARLINK-5551           
1 56359U 23058AU  25048.50065431  .00001141  00000+0  93422-4 0  9999
2 56359  97.6582  51.8761 0002321 121.7151 238.4299 15.01255141 99854
STARLINK-5549           
1 56360U 23058AV  25047.96720728 -.00000867  00000+0 -62915-4 0  9996
2 56360  97.6582  51.3500 0001145 105.7118 254.4233 15.01241813 99778
STARLINK-5550           
1 56361U 23058AW  25047.96534126  .00000708  00000+0  59729-4 0  9993
2 56361  97.6589  51.3550 0002314 128.3067 231.8366 15.01262140100263
STARLINK-5972           
1 56362U 23058AX  25048.49671476 -.00003699  00000+0 -28339-3 0  9999
2 56362  97.6611  51.8857 0001226  91.4457 268.6908 15.01276641 99852
STARLINK-6156           
1 56374U 23061A   25048.52664905 -.00000696  00000+0 -36489-4 0  9999
2 56374  43.0040 130.5517 0000772 243.3153 116.7611 15.02521827 99135
STARLINK-6158           
1 56375U 23061B   25048.52108447  .00001093  00000+0  95951-4 0  9993
2 56375  43.0024 130.5101 0001455 278.4570  81.6107 15.02535957 99104
STARLINK-6188           
1 56376U 23061C   25048.49999883  .00000374  00000+0  42708-4 0  9995
2 56376  43.0009 130.3457 0000503 273.9844  86.0940 15.02533846 99106
